#cP2026  4 30  0  0  0.00000000     289   u+U IGc20 FIT  GFZ                    
## 2416 345600.00000000   300.00000000 61160 0.0000000000000                    
+   78   E02E03E04E05E06E07E08E09E10E11E12E13E14E15E16E18E19                    
+        E21E23E25E26E27E29E30E31E33E34E36G02G03G04G05G06G07                    
+        G08G09G10G11G12G14G15G16G17G18G19G20G21G22G23G24G25                    
+        G26G27G28G29G30G31G32R02R03R04R05R06R07R08R09R11R12                    
+        R14R15R16R17R18R19R20R21R22R24 00 00 00 00 00 00 00                    
++         5  5  6  5  5  5  6  5  5  6  5  6  7  5  5  5  5                    
++         6  6  5  5  7  5  7  5  6  5  5  5  5  5  5  5  6                    
++         5  5  6  6  6  5  5  6  6  9  5  6  5  5  5  6  6                    
++         6  5  5  6  6  5  5  7  6  5  7  5  6  9  6  8  8                    
++         6  6  6  8  5  5  8  6  5  6  0  0  0  0  0  0  0                    
%c M  cc GPS ccc cccc cccc cccc cccc ccccc ccccc ccccc ccccc                    
%c cc cc ccc ccc cccc cccc cccc cccc ccccc ccccc ccccc ccccc                    
%f  1.2500000  1.025000000  0.00000000000  0.000000000000000                    
%f  0.0000000  0.000000000  0.00000000000  0.000000000000000                    
%i    0    0    0    0      0      0      0      0         0                    
%i    0    0    0    0      0      0      0      0         0                    
/* PCV:IGS20_2415 OL/AL:FES2014b NONE     YN CLK:CoN ORB:CoN                    
/*     GFZ Helmholtz Centre for Geosciences                                     
/*                                                                              
/*                                                                              
*  2026  4 30  9 45  0.00000000                                                 
PG02  16276.254430 -19088.363997  -7396.747736     89.171881                    
PG03  -1903.672849 -16492.784208 -20960.157538    483.581382                    
PG04    778.611823 -26411.919217  -1462.545501     55.294221                    
PG05 -13325.418706   9234.506134  20872.707263   -232.395931                    
PG09  -7450.305394 -24065.976988   8197.052385    755.097787                    
PG17 -12838.638934 -13495.894912 -18461.616361   -124.615195                    
PG25  12001.011640  18306.400731 -15600.102634    426.268253                    
PG31  24267.155108  -8884.150181  -7073.192575   -152.179722                    
*  2026  4 30 10  0  0.00000000                                                 
PG02  17033.600609 -19338.346924  -4617.765380     89.178807                    
PG03    258.614096 -15463.085861 -21810.901389    483.567845                    
PG04   1030.055335 -26086.168974  -4323.504735     55.295450                    
PG05 -15466.111604   8247.355603  19794.124854   -232.396242                    
PG09  -7298.115419 -24881.553523   5473.179366    755.094346                    
PG17 -12714.765088 -15594.912351 -16830.535070   -124.622812                    
PG25  10271.531343  17716.065674 -17431.520643    426.265620                    
PG31  23623.151705  -8193.901176  -9680.828702   -152.177522                    
*  2026  4 30 10 15  0.00000000                                                 
PG02  17536.892969 -19406.451618  -1755.778591     89.185637                    
PG03   2546.559230 -14531.255253 -22293.747150    483.554358                    
PG04   1330.910167 -25454.398847  -7109.220897     55.296740                    
PG05 -17521.991545   7427.445670  18370.244935   -232.396706                    
PG09  -7137.935606 -25393.065203   2654.465884    755.090925                    
PG17 -12680.894884 -17492.524117 -14898.854518   -124.630289                    
PG25   8339.628723  17148.506924 -18973.934275    426.263069                    
PG31  22788.889938  -7304.476372 -12126.510013   -152.175324                    
*  2026  4 30 10 30  0.00000000                                                 
PG02  17806.459670 -19261.042746   1137.671158     89.192465                    
PG03   4916.817610 -13722.571796 -22400.369714    483.540768                    
PG04   1716.331520 -24533.710629  -9771.216663     55.298009                    
PG05 -19444.634436   6771.406023  16626.320563   -232.397066                    
PG09  -6931.839016 -25597.837862   -210.202874    755.087531                    
PG17 -12708.992769 -19153.394587 -12701.425853   -124.638096                    
PG25   6234.280510  16635.657886 -20202.044937    426.260487                    
PG31  21802.344747  -6204.653135 -14369.670579   -152.173320                    
*  2026  4 30 10 45  0.00000000                                                 
PG02  17869.826431 -18876.765457   4010.894473     89.199445                    
PG03   7322.116446 -13054.743586 -22128.660431    483.527263                    
PG04   2217.581500 -23349.447677 -12263.203112     55.299296                    
PG05 -21188.518577   6267.529856  14593.168720   -232.397463                    
PG09  -6642.741992 -25502.182981  -3071.248443    755.084159                    
PG17 -12766.174696 -20549.700736 -10277.883533   -124.645534                    
PG25   3990.334144  16204.393274 -21095.588065    426.257890                    
PG31  20704.116306  -4890.875616 -16373.143689   -152.171008                    
*  2026  4 30 11  0  0.00000000                                                 
PG02  17760.369647 -18235.653413   6813.075657     89.206199                    
PG03   9712.845632 -12537.283520 -21482.781081    483.513781                    
PG04   2860.603290 -21934.242194 -14541.910060     55.300604                    
PG05 -22712.674428   5896.419952  12306.584493   -232.398224                    
PG09  -6236.039259 -25121.071458  -5879.272479    755.080722                    
PG17 -12816.198396 -21662.062963  -7671.832783   -124.653536                    
PG25   1647.412460  15875.514947 -21639.624612    426.255339                    
PG31  19535.908197  -3367.556884 -18103.706794   -152.169023                    
*  2026  4 30 11 15  0.00000000                                                 
PG02  17515.758859 -17327.922323   9495.238814     89.213221                    
PG03  12038.744074 -12171.199201 -20473.126277    483.500329                    
PG04   3664.810967 -20326.787877 -16567.857549     55.301908                    
PG05 -23982.156868   5631.942666   9806.669621   -232.399078                    
PG09  -5681.139153 -24477.483728  -8585.918819    755.077322                    
PG17 -12821.091933 -22480.127630  -4929.963705   -124.660934                    
PG25   -751.349204  15662.964575 -21824.768542    426.252800                    
PG31  18338.983385  -1647.093839 -19532.570364   -152.166713                    
*  2026  4 30 11 30  0.00000000                                                 
PG02  17176.262518 -16152.423358  12011.136055     89.219962                    
PG03  14250.622335 -11949.009607 -19116.192777    483.486851                    
PG04   4642.143939 -18570.387766 -18306.053364     55.303247                    
PG05 -24969.283260   5442.448120   7137.090766   -232.399675                    
PG09  -4952.838665 -23601.464151 -11144.708470    755.073925                    
PG17 -12742.847508 -23002.781699  -2101.117427   -124.668694                    
PG25  -3160.692423  15573.289964 -21647.348382    426.250294                    
PG31  17152.650805    250.405021 -20635.807459   -152.164361                    
*  2026  4 30 11 45  0.00000000                                                 
PG02  16782.993585 -14716.747437  14318.040537     89.226815                    
PG03  16302.060074 -11855.090312 -17434.354855    483.473391                    
PG04   5796.423815 -16711.336081 -19726.603366     55.304565                    
PG05 -25654.590978   5292.204731   4344.283769   -232.400040                    
PG09  -4032.485063 -22528.918872 -13511.832931    755.070520                    
PG17 -12545.106271 -23237.997273    764.670081   -124.676326                    
PG25  -5534.706514  15605.384415 -21109.500286    426.247745                    
PG31  16012.834141   2297.669998 -21394.720812   -152.162255                    
*  2026  4 30 12  0  0.00000000                                                 
PG02  16376.170155 -13036.987169  16377.432428     89.233766                    
PG03  18151.016622 -11866.337558 -15455.545672    483.459935                    
PG04   7123.038874 -14797.199153 -20805.223704     55.305801                    
PG05 -26027.480051   5142.988424   1476.620586   -232.400577                    
PG09  -2908.879824 -21300.205846 -15646.892649    755.067081                    
PG17 -12194.762430 -23202.320608   3617.121803   -124.684046                    
PG25  -7828.332657  15750.510557 -20219.189432    426.245217                    
PG31  14950.771768   4461.081115 -21796.144049   -152.160011                    
*  2026  4 30 12 15  0.00000000                                                 
PG02  15993.461306 -11137.177391  18155.571054     89.240687                    
PG03  19761.294989 -11953.129866 -13212.845666    483.446447                    
PG04   8608.967713 -12875.064036 -21523.646429     55.307176                    
PG05 -26086.519663   4955.761806  -1416.444473   -232.400977                    
PG09  -1578.891174 -19958.573087 -17513.568989    755.063697                    
PG17 -11663.420932 -22920.035434   6406.648367   -124.691468                    
PG25  -9998.851257  15992.611491 -18990.156103    426.242734                    
PG31  13991.892989   6701.713730 -21832.673371   -152.157651                    
EOF
